start=new Date('2022-05-14T00:00:00.000Z').valueOf();
sats=[{"TLE_LINE2":"2 46535  53.0540 323.0471 0001622  65.7820 294.3338 15.06401588 89109","MEAN_MOTION_DOT":"0.00002101","CENTER_NAME":"EARTH","MEAN_ELEMENT_THEORY":"SGP4","LAUNCH_DATE":"2020-10-06","TIME_SYSTEM":"UTC","REF_FRAME":"TEME","RA_OF_ASC_NODE":"323.0471","APOAPSIS":"548.332","TLE_LINE1":"1 46535U 20070D   22133.79273675  .00002101  00000-0  15992-3 0  9992","EPHEMERIS_TYPE":"0","ARG_OF_PERICENTER":"65.7820","FILE":"3444395","ECCENTRICITY":"0.00016220","NORAD_CAT_ID":"46535","BSTAR":"0.00015992000000","MEAN_MOTION":"15.06401588","OBJECT_NAME":"STARLINK-1663","OBJECT_ID":"2020-070D","PERIAPSIS":"546.085","DECAY_DATE":null,"CLASSIFICATION_TYPE":"U","OBJECT_TYPE":"PAYLOAD","ELEMENT_SET_NO":"999","REV_AT_EPOCH":"8910","COUNTRY_CODE":"US","MEAN_MOTION_DDOT":"0.0000000000000","PERIOD":"95.592","GP_ID":"203477891","SITE":"AFETR","MEAN_ANOMALY":"294.3338","EPOCH":"2022-05-13T19:01:32.455200","INCLINATION":"53.0540","SEMIMAJOR_AXIS":"6925.344","RCS_SIZE":"LARGE"},{"ELEMENT_SET_NO":"999","OBJECT_TYPE":"PAYLOAD","REV_AT_EPOCH":"8882","CLASSIFICATION_TYPE":"U","DECAY_DATE":null,"SITE":"AFETR","GP_ID":"203455516","PERIOD":"95.592","MEAN_MOTION_DDOT":"0.0000000000000","COUNTRY_CODE":"US","SEMIMAJOR_AXIS":"6925.349","INCLINATION":"53.0536","EPOCH":"2022-05-13T19:38:41.425728","MEAN_ANOMALY":"275.9759","RCS_SIZE":"LARGE","ECCENTRICITY":"0.00012400","NORAD_CAT_ID":"46537","BSTAR":"0.00000618880000","OBJECT_ID":"2020-070F","OBJECT_NAME":"STARLINK-1672","MEAN_MOTION":"15.06400008","PERIAPSIS":"546.355","REF_FRAME":"TEME","LAUNCH_DATE":"2020-10-06","TIME_SYSTEM":"UTC","RA_OF_ASC_NODE":"322.9151","APOAPSIS":"548.072","FILE":"3444338","EPHEMERIS_TYPE":"0","TLE_LINE1":"1 46537U 20070F   22133.81853502 -.00000189  00000-0  61888-5 0  9992","ARG_OF_PERICENTER":"84.1371","TLE_LINE2":"2 46537  53.0536 322.9151 0001240  84.1371 275.9759 15.06400008 88827","MEAN_MOTION_DOT":"-0.00000189","CENTER_NAME":"EARTH","MEAN_ELEMENT_THEORY":"SGP4"},{"OBJECT_TYPE":"PAYLOAD","REV_AT_EPOCH":"8910","ELEMENT_SET_NO":"999","CLASSIFICATION_TYPE":"U","DECAY_DATE":null,"SITE":"AFETR","PERIOD":"95.593","GP_ID":"203476889","COUNTRY_CODE":"US","MEAN_MOTION_DDOT":"0.0000000000000","SEMIMAJOR_AXIS":"6925.369","INCLINATION":"53.0550","EPOCH":"2022-05-13T19:06:51.343776","MEAN_ANOMALY":"291.7635","RCS_SIZE":"LARGE","ECCENTRICITY":"0.00015050","NORAD_CAT_ID":"46538","BSTAR":"0.00006289200000","OBJECT_NAME":"STARLINK-1678","OBJECT_ID":"2020-070G","MEAN_MOTION":"15.06393413","PERIAPSIS":"546.191","REF_FRAME":"TEME","TIME_SYSTEM":"UTC","LAUNCH_DATE":"2020-10-06","RA_OF_ASC_NODE":"323.0229","APOAPSIS":"548.276","FILE":"3444395","TLE_LINE1":"1 46538U 20070G   22133.79642759  .00000655  00000-0  62892-4 0  9992","ARG_OF_PERICENTER":"68.3515","EPHEMERIS_TYPE":"0","TLE_LINE2":"2 46538  53.0550 323.0229 0001505  68.3515 291.7635 15.06393413 89102","CENTER_NAME":"EARTH","MEAN_MOTION_DOT":"0.00000655","MEAN_ELEMENT_THEORY":"SGP4"},{"NORAD_CAT_ID":"46541","ECCENTRICITY":"0.00011620","BSTAR":"0.00000847570000","OBJECT_ID":"2020-070K","OBJECT_NAME":"STARLINK-1687","MEAN_MOTION":"15.06398581","PERIAPSIS":"546.413","OBJECT_TYPE":"PAYLOAD","REV_AT_EPOCH":"8939","ELEMENT_SET_NO":"999","CLASSIFICATION_TYPE":"U","DECAY_DATE":null,"SITE":"AFETR","GP_ID":"203478139","PERIOD":"95.592","COUNTRY_CODE":"US","MEAN_MOTION_DDOT":"0.0000000000000","SEMIMAJOR_AXIS":"6925.353","INCLINATION":"53.0544","EPOCH":"2022-05-13T20:13:11.682048","MEAN_ANOMALY":"274.4757","RCS_SIZE":"LARGE","TLE_LINE2":"2 46541  53.0544 302.8287 0001162  85.6365 274.4757 15.06398581 89397","CENTER_NAME":"EARTH","MEAN_MOTION_DOT":"-0.00000155","MEAN_ELEMENT_THEORY":"SGP4","REF_FRAME":"TEME","LAUNCH_DATE":"2020-10-06","TIME_SYSTEM":"UTC","RA_OF_ASC_NODE":"302.8287","APOAPSIS":"548.023","FILE":"3444395","TLE_LINE1":"1 46541U 20070K   22133.84249632 -.00000155  00000-0  84757-5 0  9996","ARG_OF_PERICENTER":"85.6365","EPHEMERIS_TYPE":"0"},{"OBJECT_TYPE":"PAYLOAD","ELEMENT_SET_NO":"999","REV_AT_EPOCH":"8912","DECAY_DATE":null,"CLASSIFICATION_TYPE":"U","GP_ID":"203478390","PERIOD":"95.592","SITE":"AFETR","MEAN_MOTION_DDOT":"0.0000000000000","COUNTRY_CODE":"US","INCLINATION":"53.0555","SEMIMAJOR_AXIS":"6925.360","MEAN_ANOMALY":"288.2078","EPOCH":"2022-05-13T21:51:24.302016","RCS_SIZE":"LARGE","NORAD_CAT_ID":"46542","ECCENTRICITY":"0.00014690","BSTAR":"0.00010001000000","OBJECT_NAME":"STARLINK-1692","OBJECT_ID":"2020-070L","MEAN_MOTION":"15.06396189","PERIAPSIS":"546.208","TIME_SYSTEM":"UTC","LAUNCH_DATE":"2020-10-06","REF_FRAME":"TEME","RA_OF_ASC_NODE":"322.5136","APOAPSIS":"548.243","FILE":"3444395","TLE_LINE1":"1 46542U 20070L   22133.91069794  .00001208  00000-0  10001-3 0  9992","EPHEMERIS_TYPE":"0","ARG_OF_PERICENTER":"71.9071","TLE_LINE2":"2 46542  53.0555 322.5136 0001469  71.9071 288.2078 15.06396189 89126","CENTER_NAME":"EARTH","MEAN_MOTION_DOT":"0.00001208","MEAN_ELEMENT_THEORY":"SGP4"},{"MEAN_ELEMENT_THEORY":"SGP4","TLE_LINE2":"2 46543  53.0563 322.5728 0001540  61.0646 299.0498 15.06395949 89120","CENTER_NAME":"EARTH","MEAN_MOTION_DOT":"0.00000837","APOAPSIS":"548.292","FILE":"3444395","TLE_LINE1":"1 46543U 20070M   22133.89594275  .00000837  00000-0  75122-4 0  9990","ARG_OF_PERICENTER":"61.0646","EPHEMERIS_TYPE":"0","REF_FRAME":"TEME","LAUNCH_DATE":"2020-10-06","TIME_SYSTEM":"UTC","RA_OF_ASC_NODE":"322.5728","OBJECT_ID":"2020-070M","OBJECT_NAME":"STARLINK-1693","MEAN_MOTION":"15.06395949","PERIAPSIS":"546.159","NORAD_CAT_ID":"46543","ECCENTRICITY":"0.00015400","BSTAR":"0.00007512200000","SEMIMAJOR_AXIS":"6925.361","INCLINATION":"53.0563","EPOCH":"2022-05-13T21:30:09.453600","MEAN_ANOMALY":"299.0498","RCS_SIZE":"LARGE","OBJECT_TYPE":"PAYLOAD","REV_AT_EPOCH":"8912","ELEMENT_SET_NO":"999","CLASSIFICATION_TYPE":"U","DECAY_DATE":null,"SITE":"AFETR","PERIOD":"95.592","GP_ID":"203477139","MEAN_MOTION_DDOT":"0.0000000000000","COUNTRY_CODE":"US"},{"MEAN_ELEMENT_THEORY":"SGP4","MEAN_MOTION_DOT":"0.00001568","CENTER_NAME":"EARTH","TLE_LINE2":"2 46544  53.0553 310.5880 0001629  69.6479 290.4684 15.06401489 89233","FILE":"3443851","ARG_OF_PERICENTER":"69.6479","TLE_LINE1":"1 46544U 20070N   22133.22832649  .00001568  00000-0  12414-3 0  9994","EPHEMERIS_TYPE":"0","APOAPSIS":"548.337","RA_OF_ASC_NODE":"310.5880","REF_FRAME":"TEME","TIME_SYSTEM":"UTC","LAUNCH_DATE":"2020-10-06","PERIAPSIS":"546.081","OBJECT_ID":"2020-070N","OBJECT_NAME":"STARLINK-1694","MEAN_MOTION":"15.06401489","BSTAR":"0.00012414000000","ECCENTRICITY":"0.00016290","NORAD_CAT_ID":"46544","RCS_SIZE":"LARGE","SEMIMAJOR_AXIS":"6925.344","INCLINATION":"53.0553","EPOCH":"2022-05-13T05:28:47.408736","MEAN_ANOMALY":"290.4684","SITE":"AFETR","PERIOD":"95.592","GP_ID":"203440812","MEAN_MOTION_DDOT":"0.0000000000000","COUNTRY_CODE":"US","OBJECT_TYPE":"PAYLOAD","REV_AT_EPOCH":"8923","ELEMENT_SET_NO":"999","CLASSIFICATION_TYPE":"U","DECAY_DATE":null},{"RCS_SIZE":"LARGE","INCLINATION":"53.0539","SEMIMAJOR_AXIS":"6925.329","MEAN_ANOMALY":"286.5672","EPOCH":"2022-05-13T19:12:09.045216","GP_ID":"203477641","PERIOD":"95.592","SITE":"AFETR","MEAN_MOTION_DDOT":"0.0000000000000","COUNTRY_CODE":"US","OBJECT_TYPE":"PAYLOAD","REV_AT_EPOCH":"8910","ELEMENT_SET_NO":"999","DECAY_DATE":null,"CLASSIFICATION_TYPE":"U","PERIAPSIS":"545.930","OBJECT_ID":"2020-070P","OBJECT_NAME":"STARLINK-1696","MEAN_MOTION":"15.06406498","BSTAR":"0.00007362900000","NORAD_CAT_ID":"46545","ECCENTRICITY":"0.00018250","FILE":"3444395","ARG_OF_PERICENTER":"73.5517","TLE_LINE1":"1 46545U 20070P   22133.80010469  .00000815  00000-0  73629-4 0  9997","EPHEMERIS_TYPE":"0","APOAPSIS":"548.458","RA_OF_ASC_NODE":"323.0269","LAUNCH_DATE":"2020-10-06","TIME_SYSTEM":"UTC","REF_FRAME":"TEME","MEAN_ELEMENT_THEORY":"SGP4","MEAN_MOTION_DOT":"0.00000815","CENTER_NAME":"EARTH","TLE_LINE2":"2 46545  53.0539 323.0269 0001825  73.5517 286.5672 15.06406498 89107"},{"GP_ID":"203477892","PERIOD":"95.592","SITE":"AFETR","MEAN_MOTION_DDOT":"0.0000000000000","COUNTRY_CODE":"US","ELEMENT_SET_NO":"999","OBJECT_TYPE":"PAYLOAD","REV_AT_EPOCH":"8910","DECAY_DATE":null,"CLASSIFICATION_TYPE":"U","RCS_SIZE":"LARGE","INCLINATION":"53.0550","SEMIMAJOR_AXIS":"6925.345","MEAN_ANOMALY":"295.5374","EPOCH":"2022-05-13T18:50:55.380480","BSTAR":"0.00008125200000","ECCENTRICITY":"0.00020790","NORAD_CAT_ID":"46546","PERIAPSIS":"545.770","OBJECT_NAME":"STARLINK-1697","OBJECT_ID":"2020-070Q","MEAN_MOTION":"15.06401314","RA_OF_ASC_NODE":"323.0697","LAUNCH_DATE":"2020-10-06","TIME_SYSTEM":"UTC","REF_FRAME":"TEME","FILE":"3444395","TLE_LINE1":"1 46546U 20070Q   22133.78536320  .00000929  00000-0  81252-4 0  9991","ARG_OF_PERICENTER":"64.5830","EPHEMERIS_TYPE":"0","APOAPSIS":"548.649","CENTER_NAME":"EARTH","MEAN_MOTION_DOT":"0.00000929","TLE_LINE2":"2 46546  53.0550 323.0697 0002079  64.5830 295.5374 15.06401314 89107","MEAN_ELEMENT_THEORY":"SGP4"},{"RA_OF_ASC_NODE":"322.9421","REF_FRAME":"TEME","LAUNCH_DATE":"2020-10-06","TIME_SYSTEM":"UTC","FILE":"3444395","TLE_LINE1":"1 46547U 20070R   22133.81485034  .00000729  00000-0  67812-4 0  9995","ARG_OF_PERICENTER":"75.1875","EPHEMERIS_TYPE":"0","APOAPSIS":"548.308","CENTER_NAME":"EARTH","MEAN_MOTION_DOT":"0.00000729","TLE_LINE2":"2 46547  53.0556 322.9421 0001568  75.1875 284.9288 15.06397237 89111","MEAN_ELEMENT_THEORY":"SGP4","SITE":"AFETR","PERIOD":"95.592","GP_ID":"203476640","COUNTRY_CODE":"US","MEAN_MOTION_DDOT":"0.0000000000000","REV_AT_EPOCH":"8911","OBJECT_TYPE":"PAYLOAD","ELEMENT_SET_NO":"999","CLASSIFICATION_TYPE":"U","DECAY_DATE":null,"RCS_SIZE":"LARGE","SEMIMAJOR_AXIS":"6925.357","INCLINATION":"53.0556","EPOCH":"2022-05-13T19:33:23.069376","MEAN_ANOMALY":"284.9288","BSTAR":"0.00006781200000","ECCENTRICITY":"0.00015680","NORAD_CAT_ID":"46547","PERIAPSIS":"546.136","OBJECT_ID":"2020-070R","OBJECT_NAME":"STARLINK-1698","MEAN_MOTION":"15.06397237"}];
